GALAXY 25 (G-25)        
1 24812U 97026A   23361.63244715 -.00000275  00000+0  00000+0 0  9991
2 24812   5.0992  77.9527 0001328 170.5544 227.2428  0.99034379 97288
INTELSAT 5 (IS-5)       
1 24916U 97046A   23361.58452274 -.00000062  00000+0  00000+0 0  9997
2 24916   8.4269  56.8908 0006357 192.5757 222.9026  1.00271622 96577
GALAXY 11 (G-11)        
1 26038U 99071A   23361.64766971 -.00000050  00000+0  00000+0 0  9990
2 26038   4.4396  81.3311 0002551 267.8795 146.1084  1.00271597 88036
INTELSAT 9 (IS-9)       
1 26451U 00043A   23361.15588748 -.00000286  00000+0  00000+0 0  9991
2 26451   8.4113  57.0913 0004485 214.1390 190.2673  1.00272802 35090
INTELSAT 1R (IS-1R)     
1 26608U 00072A   23361.63789375 -.00000135  00000+0  00000+0 0  9992
2 26608   5.8109  74.5536 0002639 242.3799 165.6554  1.00272053 32279
INTELSAT 10 (IS-10)     
1 26766U 01019A   23361.56072969  .00000036  00000+0  00000+0 0  9994
2 26766   6.9097  68.3261 0005058 204.5458 202.5488  1.00271765 36571
INTELSAT 901 (IS-901)   
1 26824U 01024A   23361.46255045 -.00000193  00000+0  00000+0 0  9997
2 26824   0.0143 307.4485 0001262 352.2745 294.9838  1.00270627 13936
INTELSAT 902 (IS-902)   
1 26900U 01039A   23361.52964501 -.00000277  00000+0  00000+0 0  9992
2 26900   3.8195  82.6732 0003689 204.7691 308.8896  1.00272907 81647
INTELSAT 904 (IS-904)   
1 27380U 02007A   23361.46211534 -.00000209  00000+0  00000+0 0  9990
2 27380   4.6422  79.8199 0003308 198.4524 314.2611  1.00271769 42715
DIRECTV 5 (TEMPO 1)     
1 27426U 02023A   23361.62527986 -.00000049  00000+0  00000+0 0  9990
2 27426   2.5564  86.5602 0003495 188.9842 295.2687  1.00271524 79077
INTELSAT 905 (IS-905)   
1 27438U 02027A   23361.46315961 -.00000180  00000+0  00000+0 0  9993
2 27438   4.4670  80.4938 0002917 194.1153 323.3114  1.00272357 42316
GALAXY 3C (G-3C)        
1 27445U 02030A   23361.53557028 -.00000144  00000+0  00000+0 0  9995
2 27445   1.4068  89.0016 0001526 205.1580 259.5366  1.00271359 37444
INTELSAT 906 (IS-906)   
1 27513U 02041A   23361.40911847  .00000019  00000+0  00000+0 0  9992
2 27513   3.4928  83.9660 0006086 187.5860  35.5111  1.00272914 77975
GALAXY 12 (G-12)        
1 27715U 03013B   23361.57888708 -.00000110  00000+0  00000+0 0  9996
2 27715   4.6777  79.5455 0002555 251.0560  79.8386  0.98983838 43022
GALAXY 23 (G-23)        
1 27854U 03034A   23361.59690816  .00000021  00000+0  00000+0 0  9996
2 27854   0.8587  91.4550 0002629 183.4981 274.8582  1.00271132 74692
GALAXY 13 (HORIZONS-1)  
1 27954U 03044A   23361.56768954  .00000142  00000+0  00000+0 0  9998
2 27954   0.0163  67.4043 0000226 340.7038 102.0498  1.00269377 37524
INTELSAT 10-02          
1 28358U 04022A   23361.43920991 -.00000002  00000+0  00000+0 0  9997
2 28358   0.0328 266.8612 0001085  15.7566 330.1811  1.00271158 71499
XM-3 (RHYTHM)           
1 28626U 05008A   23361.52268318 -.00000196  00000+0  00000+0 0  9992
2 28626   0.0346 185.6138 0000936   2.6708  10.5125  1.00268022 33575
DIRECTV 8               
1 28659U 05019A   23361.59829807  .00000010  00000+0  00000+0 0  9997
2 28659   0.0174  27.3894 0002714 255.8466 268.9213  1.00272303 68022
GALAXY 28 (G-28)        
1 28702U 05022A   23361.52189998 -.00000177  00000+0  00000+0 0  9998
2 28702   0.9628  89.9338 0006591 185.5689 279.1114  1.00271669 42934
GALAXY 14 (G-14)        
1 28790U 05030A   23361.54617934  .00000162  00000+0  00000+0 0  9995
2 28790   2.6860  85.8986 0001750 192.8095  46.5564  1.00272023 67258
GALAXY 15 (G-15)        
1 28884U 05041A   23361.64081948 -.00000246  00000+0  00000+0 0  9996
2 28884   1.1806  85.2780 0014019 121.1069 280.9446  0.98943597 66518
SPACEWAY 2              
1 28903U 05046B   23361.49237958  .00000109  00000+0  00000+0 0  9997
2 28903   3.1999  82.3567 0001265 216.7965 194.9076  1.00272716 42295
GALAXY 16 (G-16)        
1 29236U 06023A   23361.61652556 -.00000118  00000+0  00000+0 0  9993
2 29236   0.0314 265.5232 0002671  11.6895 301.5678  1.00272322 63922
DIRECTV 9S              
1 29494U 06043A   23361.61512149 -.00000104  00000+0  00000+0 0  9999
2 29494   0.0861  85.3492 0003270 191.0263 299.6910  1.00271200 42331
XM-4 (BLUES)            
1 29520U 06049A   23361.46124510 -.00000210  00000+0  00000+0 0  9997
2 29520   0.4803  94.9536 0004020 228.5752 264.3091  0.98815844 42422
GALAXY 17 (G-17)        
1 31307U 07016B   23361.52268318 -.00000197  00000+0  00000+0 0  9994
2 31307   0.6761  91.6330 0005498 204.6875 262.5742  1.00271732 60755
DIRECTV 10              
1 31862U 07032A   23361.63235782 -.00000093  00000+0  00000+0 0  9994
2 31862   0.0523 171.3993 0000800  60.7052 348.6032  1.00270327 36549
SPACEWAY 3              
1 32018U 07036A   23361.45671993 -.00000278  00000+0  00000+0 0  9995
2 32018   1.6576  87.5840 0000338 110.1280   5.6103  1.00271102 37504
INTELSAT 11 (IS-11)     
1 32253U 07044B   23361.45941764 -.00000260  00000+0  00000+0 0  9992
2 32253   1.2175  89.9155 0004725 196.3059 291.8350  1.00274290 59446
HORIZONS-2              
1 32388U 07063B   23361.52494578 -.00000244  00000+0  00000+0 0  9998
2 32388   0.2652  91.1276 0002309 185.0549 294.7439  1.00271394 58764
DIRECTV 11              
1 32729U 08013A   23361.61652534 -.00000116  00000+0  00000+0 0  9999
2 32729   0.0148  89.5947 0000963  53.3828  75.6165  1.00268966 36543
GALAXY 18 (G-18)        
1 32951U 08024A   23361.63931285  .00000035  00000+0  00000+0 0  9992
2 32951   0.0165 338.8707 0003354 297.2840 286.8385  1.00270745 36800
INTELSAT 25 (IS-25)     
1 33153U 08034A   23361.46168022 -.00000215  00000+0  00000+0 0  9991
2 33153   0.3727  90.8767 0003382 191.1988 308.3007  1.00270594 56646
GALAXY 19 (G-19)        
1 33376U 08045A   23361.61929889 -.00000130  00000+0  00000+0 0  9999
2 33376   0.0164 355.1354 0003196 285.6742 300.9568  1.00271088 55855
FM-5                    
1 35493U 09034A   23361.52250914 -.00000191  00000+0  00000+0 0  9993
2 35493   0.0013  71.3336 0000416 188.1225 298.2337  1.00269921 37599
INTELSAT 14 (IS-14)     
1 36097U 09064A   23361.45906954 -.00000264  00000+0  00000+0 0  9992
2 36097   0.0146   6.6273 0002841 275.4965 293.8147  1.00270551 51556
INTELSAT 15 (IS-15)     
1 36106U 09067A   23361.62970176 -.00000176  00000+0  00000+0 0  9994
2 36106   0.0133 311.0333 0002214 342.2309 114.4144  1.00269759 32172
DIRECTV 12              
1 36131U 09075A   23361.61399966 -.00000095  00000+0  00000+0 0  9992
2 36131   0.0149 125.7686 0000162 312.7165 135.6659  1.00273482 37517
INTELSAT 16 (IS-16)     
1 36397U 10006A   23361.52442365 -.00000235  00000+0  00000+0 0  9990
2 36397   0.0125 326.5677 0002247 306.0932 295.6646  1.00270367 50607
XM-5                    
1 37185U 10053A   23361.60231028 -.00000014  00000+0  00000+0 0  9994
2 37185   0.0223 298.0827 0000709 242.3293  17.0362  1.00269953 48433
INTELSAT 17 (IS-17)     
1 37238U 10065B   23361.48117332  .00000007  00000+0  00000+0 0  9994
2 37238   0.0294  53.4349 0002576 243.8728  37.6093  1.00272754 44185
INTELSAT NEW DAWN       
1 37392U 11016A   23361.54285456  .00000164  00000+0  00000+0 0  9996
2 37392   0.0282 277.2207 0001304 333.1596  73.5820  1.00271275 44236
INTELSAT 18 (IS-18)     
1 37834U 11056A   23361.56265795  .00000062  00000+0  00000+0 0  9994
2 37834   0.0174   2.1808 0002253 280.4006 195.7566  1.00272458 44769
INTELSAT 22 (IS-22)     
1 38098U 12011A   23361.55401139 -.00000050  00000+0  00000+0 0  9990
2 38098   0.0474  68.1274 0003136 213.0227  86.1595  1.00270321 42762
INTELSAT 19 (IS-19)     
1 38356U 12030A   23361.64606672 -.00000048  00000+0  00000+0 0  9994
2 38356   0.0110   5.4886 0003309 270.6457 218.3064  1.00271643 41391
INTELSAT 20 (IS-20)     
1 38740U 12043A   23361.55322818 -.00000016  00000+0  00000+0 0  9997
2 38740   0.0107  87.5603 0002283  93.8116 182.0621  1.00271322 41692
INTELSAT 21 (IS-21)     
1 38749U 12045A   23361.52807860 -.00000276  00000+0  00000+0 0  9998
2 38749   0.0160 292.5628 0002530 339.1590 316.1242  1.00270311 41474
INTELSAT 23 (IS-23)     
1 38867U 12057A   23361.45741610 -.00000275  00000+0  00000+0 0  9993
2 38867   0.0172  85.3220 0000727 240.6712 241.3393  1.00266410 40898
FM-6                    
1 39360U 13058A   23361.60109559 -.00000007  00000+0  00000+0 0  9994
2 39360   0.0328  51.9856 0000204 107.3491  36.6958  1.00269202 37011
INTELSAT 30 (IS-30)     
1 40271U 14062A   23361.30582243 -.00000141  00000+0  00000+0 0  9994
2 40271   0.0103   7.4207 0001045 348.7168 114.4227  1.00270596 33543
DIRECTV 14              
1 40333U 14078B   23361.33274052 -.00000116  00000+0  00000+0 0  9991
2 40333   0.0246 306.1145 0000187 288.5556 241.4391  1.00270272 33014
DIRECTV 15              
1 40663U 15026A   23361.63962302 -.00000093  00000+0  00000+0 0  9990
2 40663   0.0191  29.2090 0000404 180.4120  13.6218  1.00268760 31429
SKY MEXICO-1            
1 40664U 15026B   23361.52390150 -.00000225  00000+0  00000+0 0  9992
2 40664   0.0205  11.6539 0002700 275.2573 278.6734  1.00269042 31403
INTELSAT 34 (IS-34)     
1 40874U 15039A   23361.45698100 -.00000276  00000+0  00000+0 0  9993
2 40874   0.0157  12.4548 0000827 295.6131 256.6230  1.00269770 30577
INTELSAT 31 (IS-31)     
1 41581U 16035A   23361.34320108 -.00000141  00000+0  00000+0 0  9995
2 41581   0.0252  90.6717 0001809  98.7569 294.6240  1.00271446 27643
INTELSAT 36 (IS-36)     
1 41747U 16053A   23361.55322818 -.00000016  00000+0  00000+0 0  9993
2 41747   0.0109   8.7781 0001593   3.9006 350.7397  1.00271296 26899
INTELSAT 33E (IS-33E)   
1 41748U 16053B   23361.55157475  .00000058  00000+0  00000+0 0  9994
2 41748   0.0063 330.0791 0001994 304.5973  79.6397  1.00271187 27199
INTELSAT 32E (IS-32E)   
1 41945U 17007B   23361.53095035 -.00000260  00000+0  00000+0 0  9990
2 41945   0.0140  45.1840 0000198 153.3922  45.1277  1.00269465 25179
INTELSAT 35E (IS-35E)   
1 42818U 17041A   23361.46115809 -.00000229  00000+0  00000+0 0  9997
2 42818   0.0187 341.2862 0002154 302.6663 303.2462  1.00271317 23765
